{
  "type": "FeatureCollection",
  "features": [
    {
      "type": "Feature",
      "properties": {
        "norad_id": 30606,
        "name": "FENGYUN 1C DEB",
        "group": "fengyun-1c-debris",
        "lat": 80.5005414403328,
        "lon": -47.60810233949808,
        "alt_km": 542.8492652513833,
        "timestamp": "2025-12-26T21:25:53.287824+00:00",
        "meta_object_name": "FENGYUN 1C DEB",
        "meta_object_id": "1999-025AMM",
        "meta_epoch": "2025-12-26T11:51:05.690304",
        "meta_mean_motion": 14.57726703,
        "meta_eccentricity": 0.02143314,
        "meta_inclination": 98.096,
        "meta_ra_of_asc_node": 10.287,
        "meta_arg_of_pericenter": 94.5072,
        "meta_mean_anomaly": 57.3848,
        "meta_ephemeris_type": 0,
        "meta_classification_type": "U",
        "meta_norad_cat_id": 30606,
        "meta_element_set_no": 999,
        "meta_rev_at_epoch": 99442,
        "meta_bstar": 0.00057562849,
        "meta_mean_motion_dot": 3.557e-05,
        "meta_mean_motion_ddot": 0,
        "tle_line1": "1 30606U 99025AMM 25360.49381586  .00003557  00000+0  57563-3 0  9998",
        "tle_line2": "2 30606  98.0960  10.2870 0214331  94.5072  57.3848 14.57726703994423"
      },
      "geometry": {
        "type": "Point",
        "coordinates": [
          -47.60810233949808,
          80.5005414403328
        ]
      }
    },
    {
      "type": "Feature",
      "properties": {
        "norad_id": 30608,
        "name": "FENGYUN 1C DEB",
        "group": "fengyun-1c-debris",
        "lat": 49.660148469769744,
        "lon": -106.07384542986115,
        "alt_km": 780.4578512150156,
        "timestamp": "2025-12-26T21:25:53.287834+00:00",
        "meta_object_name": "FENGYUN 1C DEB",
        "meta_object_id": "1999-025AMP",
        "meta_epoch": "2025-12-26T14:50:59.464320",
        "meta_mean_motion": 14.28552841,
        "meta_eccentricity": 0.00163534,
        "meta_inclination": 98.7088,
        "meta_ra_of_asc_node": 63.2546,
        "meta_arg_of_pericenter": 140.4127,
        "meta_mean_anomaly": 19.5683,
        "meta_ephemeris_type": 0,
        "meta_classification_type": "U",
        "meta_norad_cat_id": 30608,
        "meta_element_set_no": 999,
        "meta_rev_at_epoch": 97637,
        "meta_bstar": 0.0011919296,
        "meta_mean_motion_dot": 2.95e-05,
        "meta_mean_motion_ddot": 0,
        "tle_line1": "1 30608U 99025AMP 25360.61874380  .00002950  00000+0  11919-2 0  9993",
        "tle_line2": "2 30608  98.7088  63.2546 0016353 140.4127  19.5683 14.28552841976376"
      },
      "geometry": {
        "type": "Point",
        "coordinates": [
          -106.07384542986115,
          49.660148469769744
        ]
      }
    },
    {
      "type": "Feature",
      "properties": {
        "norad_id": 30609,
        "name": "FENGYUN 1C DEB",
        "group": "fengyun-1c-debris",
        "lat": -40.283816523174686,
        "lon": 89.52824231380043,
        "alt_km": 937.9953184359556,
        "timestamp": "2025-12-26T21:25:53.287844+00:00",
        "meta_object_name": "FENGYUN 1C DEB",
        "meta_object_id": "1999-025AMQ",
        "meta_epoch": "2025-12-24T05:25:59.119680",
        "meta_mean_motion": 14.11312216,
        "meta_eccentricity": 0.01199952,
        "meta_inclination": 98.5695,
        "meta_ra_of_asc_node": 274.3247,
        "meta_arg_of_pericenter": 20.8022,
        "meta_mean_anomaly": 339.7974,
        "meta_ephemeris_type": 0,
        "meta_classification_type": "U",
        "meta_norad_cat_id": 30609,
        "meta_element_set_no": 999,
        "meta_rev_at_epoch": 95890,
        "meta_bstar": 0.0026849985,
        "meta_mean_motion_dot": 5.153e-05,
        "meta_mean_motion_ddot": 0,
        "tle_line1": "1 30609U 99025AMQ 25358.22637870  .00005153  00000+0  26850-2 0  9997",
        "tle_line2": "2 30609  98.5695 274.3247 0119995  20.8022 339.7974 14.11312216958904"
      },
      "geometry": {
        "type": "Point",
        "coordinates": [
          89.52824231380043,
          -40.283816523174686
        ]
      }
    },
    {
      "type": "Feature",
      "properties": {
        "norad_id": 30612,
        "name": "FENGYUN 1C DEB",
        "group": "fengyun-1c-debris",
        "lat": 75.53907059577868,
        "lon": -148.4412647827582,
        "alt_km": 476.31809702740975,
        "timestamp": "2025-12-26T21:25:53.287855+00:00",
        "meta_object_name": "FENGYUN 1C DEB",
        "meta_object_id": "1999-025AMT",
        "meta_epoch": "2025-12-26T05:36:25.256160",
        "meta_mean_motion": 15.3263799,
        "meta_eccentricity": 0.00244414,
        "meta_inclination": 99.0829,
        "meta_ra_of_asc_node": 352.4092,
        "meta_arg_of_pericenter": 300.0912,
        "meta_mean_anomaly": 125.1935,
        "meta_ephemeris_type": 0,
        "meta_classification_type": "U",
        "meta_norad_cat_id": 30612,
        "meta_element_set_no": 999,
        "meta_rev_at_epoch": 464,
        "meta_bstar": 0.0035990694,
        "meta_mean_motion_dot": 0.00116024,
        "meta_mean_motion_ddot": 0,
        "tle_line1": "1 30612U 99025AMT 25360.23362565  .00116024  00000+0  35991-2 0  9997",
        "tle_line2": "2 30612  99.0829 352.4092 0024441 300.0912 125.1935 15.32637990  4641"
      },
      "geometry": {
        "type": "Point",
        "coordinates": [
          -148.4412647827582,
          75.53907059577868
        ]
      }
    },
    {
      "type": "Feature",
      "properties": {
        "norad_id": 30613,
        "name": "FENGYUN 1C DEB",
        "group": "fengyun-1c-debris",
        "lat": -66.36042981758301,
        "lon": 141.52961236974681,
        "alt_km": 553.7458716311921,
        "timestamp": "2025-12-26T21:25:53.287865+00:00",
        "meta_object_name": "FENGYUN 1C DEB",
        "meta_object_id": "1999-025AMU",
        "meta_epoch": "2025-12-25T20:27:10.587168",
        "meta_mean_motion": 15.1987515,
        "meta_eccentricity": 0.00599436,
        "meta_inclination": 98.3065,
        "meta_ra_of_asc_node": 120.8858,
        "meta_arg_of_pericenter": 121.9379,
        "meta_mean_anomaly": 238.7702,
        "meta_ephemeris_type": 0,
        "meta_classification_type": "U",
        "meta_norad_cat_id": 30613,
        "meta_element_set_no": 999,
        "meta_rev_at_epoch": 99595,
        "meta_bstar": 0.004500504,
        "meta_mean_motion_dot": 0.00102512,
        "meta_mean_motion_ddot": 0,
        "tle_line1": "1 30613U 99025AMU 25359.85220587  .00102512  00000+0  45005-2 0  9995",
        "tle_line2": "2 30613  98.3065 120.8858 0059943 121.9379 238.7702 15.19875150995958"
      },
      "geometry": {
        "type": "Point",
        "coordinates": [
          141.52961236974681,
          -66.36042981758301
        ]
      }
    },
    {
      "type": "Feature",
      "properties": {
        "norad_id": 30616,
        "name": "FENGYUN 1C DEB",
        "group": "fengyun-1c-debris",
        "lat": 81.15445575668654,
        "lon": -20.754734768628566,
        "alt_km": 1303.519665702791,
        "timestamp": "2025-12-26T21:25:53.287875+00:00",
        "meta_object_name": "FENGYUN 1C DEB",
        "meta_object_id": "1999-025AMX",
        "meta_epoch": "2025-12-25T14:24:23.518080",
        "meta_mean_motion": 13.36050195,
        "meta_eccentricity": 0.0381656,
        "meta_inclination": 98.6413,
        "meta_ra_of_asc_node": 55.869,
        "meta_arg_of_pericenter": 223.7679,
        "meta_mean_anomaly": 133.261,
        "meta_ephemeris_type": 0,
        "meta_classification_type": "U",
        "meta_norad_cat_id": 30616,
        "meta_element_set_no": 999,
        "meta_rev_at_epoch": 91872,
        "meta_bstar": 0.0017371,
        "meta_mean_motion_dot": 1.313e-05,
        "meta_mean_motion_ddot": 0,
        "tle_line1": "1 30616U 99025AMX 25359.60027220  .00001313  00000+0  17371-2 0  9992",
        "tle_line2": "2 30616  98.6413  55.8690 0381656 223.7679 133.2610 13.36050195918723"
      },
      "geometry": {
        "type": "Point",
        "coordinates": [
          -20.754734768628566,
          81.15445575668654
        ]
      }
    },
    {
      "type": "Feature",
      "properties": {
        "norad_id": 30619,
        "name": "FENGYUN 1C DEB",
        "group": "fengyun-1c-debris",
        "lat": -8.65141189604397,
        "lon": 24.68761636545169,
        "alt_km": 618.5314743322815,
        "timestamp": "2025-12-26T21:25:53.287885+00:00",
        "meta_object_name": "FENGYUN 1C DEB",
        "meta_object_id": "1999-025ANA",
        "meta_epoch": "2025-12-26T08:08:24.002016",
        "meta_mean_motion": 14.41128934,
        "meta_eccentricity": 0.02151681,
        "meta_inclination": 98.2945,
        "meta_ra_of_asc_node": 22.8779,
        "meta_arg_of_pericenter": 17.5434,
        "meta_mean_anomaly": 343.3041,
        "meta_ephemeris_type": 0,
        "meta_classification_type": "U",
        "meta_norad_cat_id": 30619,
        "meta_element_set_no": 999,
        "meta_rev_at_epoch": 99145,
        "meta_bstar": 0.000326107,
        "meta_mean_motion_dot": 1.333e-05,
        "meta_mean_motion_ddot": 0,
        "tle_line1": "1 30619U 99025ANA 25360.33916669  .00001333  00000+0  32611-3 0  9998",
        "tle_line2": "2 30619  98.2945  22.8779 0215168  17.5434 343.3041 14.41128934991453"
      },
      "geometry": {
        "type": "Point",
        "coordinates": [
          24.68761636545169,
          -8.65141189604397
        ]
      }
    }
  ]
}